Size: small Deviation: 15
all datasets: 125
NOT correct mapping: numberOfMatches - numberOfGoals
/Users/emiliakacprzak/Code/papers/semantification/benchmark_labels_new/smallSample/small15/dbo_numberOfMatches-452-small-15var.csv
[(u'numberOfGoals', 0), (u'numberOfMatches', 0.0), (u'years', 0.829476861167002)]
NOT correct mapping: openingYear - closingYear
/Users/emiliakacprzak/Code/papers/semantification/benchmark_labels_new/smallSample/small15/dbo_openingYear-362-small-15var.csv
[(u'closingYear', 0.016105417276720352), (u'openingYear', 0.025925925925925925), (u'buildingStartYear', 0.048427358961557664), (u'buildingStartDate', 0.048427358961557664), (u'rebuildingYear', 0.09360936093609361), (u'passengersPerYear', 0.1940192239231043), (u'length', 0.5161064030131827), (u'height', 0.9538300104931794), (u'runwayLength', 0.98517562159337591), (u'width', 0.9931262241054614), (u'numberOfTracks', 0.9983069977426636), (u'volume', 0.9986188405797102), (u'Infrastructure/length', 0.9995161084745764), (u'isHandicappedAccessible', 0.9995499549954996), (u'elevation', 0.99999998937631296), (u'o/wgs84_pos#long', 0.99999999978042264), (u'o/wgs84_pos#lat', 1.0)]
NOT correct mapping: draftYear - activeYearsStartYear
/Users/emiliakacprzak/Code/papers/semantification/benchmark_labels_new/smallSample/small15/dbo_draftYear-333-small-15var.csv
[(u'activeYearsStartYear', 0.0004967709885742673), (u'draftYear', 0.0024838549428713363), (u'activeYearsEndYear', 0.003980099502487562), (u'Person/weight', 0.9493077490774908), (u'weight', 0.9737475570808904), (u'pb', 0.99028593312567192), (u'years', 0.99739175996267693), (u'height', 0.9989690036900369), (u'imageSize', 0.99999999240768334), (u'heightIn', 0.99999999892354663), (u'heightFt', 0.99999999892354663)]
NOT correct mapping: maximumElevation - minimumElevation
/Users/emiliakacprzak/Code/papers/semantification/benchmark_labels_new/smallSample/small15/dbo_maximumElevation-413-small-15var.csv
[(u'minimumElevation', 0.035211267605633804), (u'maximumElevation', 0.045454545454545456), (u'areaCode', 0.09090909090909091), (u'PopulatedPlace/areaTotal', 0.24696380933039652), (u'elevation', 0.2823153409090909), (u'PopulatedPlace/area', 0.5330396475770925), (u'populationTotalRanking', 0.73568281938326), (u'populationUrban', 0.8650694777192142), (u'populationDensity', 0.8847177362016779), (u'PopulatedPlace/populationDensity', 0.8847178766159225), (u'PopulatedPlace/areaUrban', 0.905104818114984), (u'populationTotal', 0.9526470588235294), (u'area', 0.9545454545454546), (u'utcOffset', 0.9545454545454546), (u'PopulatedPlace/areaMetro', 0.9896375987243766), (u'inseeCode', 0.9962319286373423), (u'postalCode', 0.9962878787878788), (u'longs', 0.9998106971931574), (u'populationMetro', 0.9999192627084765), (u'areaTotal', 0.9999425), (u'latm', 0.99996298990704546), (u'lats', 0.9999674696569707), (u'latd', 0.99996788877642928), (u'longm', 0.99997351103036969), (u'areaWater', 0.9999786232225256), (u'longd', 0.99999686780644881), (u'areaLand', 0.9999985840818363), (u'areaUrban', 0.9999999051046984), (u'o/wgs84_pos#lat', 0.9999999890098511), (u'areaMetro', 0.9999999896375895)]
NOT correct mapping: yearOfConstruction - area
/Users/emiliakacprzak/Code/papers/semantification/benchmark_labels_new/smallSample/small15/dbo_yearOfConstruction-391-small-15var.csv
[(u'area', 0.006143034352559793), (u'yearOfConstruction', 0.018274111675126905), (u'runwayLength', 0.985685587556409), (u'nrhpReferenceNumber', 0.9993184996194262), (u'elevation', 0.99999999158097297), (u'o/wgs84_pos#long', 0.99999999983403809), (u'o/wgs84_pos#lat', 1.0)]
NOT correct mapping: populationDensity - PopulatedPlace/populationDensity
/Users/emiliakacprzak/Code/papers/semantification/benchmark_labels_new/smallSample/small15/dbo_populationDensity-404-small-15var.csv
[(u'PopulatedPlace/populationDensity', 0.0), (u'populationDensity', 0.0), (u'utcOffset', 0.0), (u'PopulatedPlace/areaTotal', 0.2475655297797959), (u'elevation', 0.4584132231404959), (u'areaCode', 0.4839108910891089), (u'populationTotal', 0.5193370165745856), (u'meanAnomaly', 0.81884130496468122), (u'argPeri', 0.91030874905117376), (u'percentageOfAreaWater', 0.9439534883720931), (u'temperature', 0.98422502492348185), (u'ascNode', 0.98676257353395336), (u'postalCode', 0.9956897442788333), (u'inclination', 0.99596389797575591), (u'radius', 0.99760291695795167), (u'areaWater', 0.9991949775867861), (u'areaTotal', 0.9996097421203438), (u'yearLeader', 0.99971923857386569), (u'populationMetro', 0.9998254569349211), (u'tisserand', 0.99985623012161817), (u'absoluteMagnitude', 0.99990838863858578), (u'areaLand', 0.9999539682539682), (u'averageSpeed', 0.99997712809089312), (u'uncertainty', 0.99999370899105389), (u'mass', 0.99999951883023808), (u'rotationPeriod', 0.99999993121844177), (u'orbitalPeriod', 0.9999999933375231), (u'periapsis', 0.99999999383938398), (u'apoapsis', 0.99999999383938398), (u'eccentricity', 0.99999999992116817), (u'o/wgs84_pos#lat', 1.0)]
NOT correct mapping: deathYear - birthYear
/Users/emiliakacprzak/Code/papers/semantification/benchmark_labels_new/smallSample/small15/dbo_deathYear-207-small-15var.csv
[(u'birthYear', 0.004702194357366771), (u'deathYear', 0.046812749003984064), (u'years', 0.45741333290113995), (u'imageSize', 0.98296423388389942), (u'children', 0.98389764400430446)]
NOT correct mapping: areaLand - areaTotal
/Users/emiliakacprzak/Code/papers/semantification/benchmark_labels_new/smallSample/small15/dbo_areaLand-243-small-15var.csv
[(u'areaTotal', 0.005245444299442402), (u'areaLand', 0.02506335644043205), (u'populationMetro', 0.6447931156048451), (u'areaWater', 0.8983873905955252), (u'postalCode', 0.9823835803438314), (u'populationTotal', 0.995914576734311), (u'elevation', 0.9997515454782296), (u'areaCode', 0.9998071505070621), (u'PopulatedPlace/populationDensity', 0.9998660253348647), (u'populationDensity', 0.9998660255125562), (u'utcOffset', 0.9999963939403774), (u'PopulatedPlace/areaTotal', 0.9999989098414015), (u'dateEvent', 0.99999995390155239), (u'yearLeader', 1.0), (u'o/wgs84_pos#lat', 1.0), (u'percentageOfAreaWater', 1.0)]
NOT correct mapping: deathYear - birthYear
/Users/emiliakacprzak/Code/papers/semantification/benchmark_labels_new/smallSample/small15/dbo_deathYear-208-small-15var.csv
[(u'birthYear', 0.0015764582238570678), (u'activeYearsEndYear', 0.005626598465473146), (u'activeYearsStartYear', 0.006172839506172839), (u'deathYear', 0.007150153217568948), (u'imdbId', 0.9948452378111352), (u'imageSize', 0.99947764157343821), (u'children', 0.99997913039537423), (u'imagesize', 0.99997913039537423)]
NOT correct mapping: serviceEndYear - serviceStartYear
/Users/emiliakacprzak/Code/papers/semantification/benchmark_labels_new/smallSample/small15/dbo_serviceEndYear-33-small-15var.csv
[(u'serviceStartYear', 0.01379690949227373), (u'serviceEndYear', 0.015426997245179064), (u'termStart', 0.36240667913826885), (u'termEnd', 0.48105750071192921), (u'years', 0.78736076286868406), (u'birthDate', 0.81336375549076056), (u'deathDate', 0.88448231510997211), (u'change', 0.99947764157343821), (u'electionMajority', 0.99993914160577946), (u'o/wgs84_pos#lat', 0.99993914160577946), (u'date', 0.99993914160577946), (u'o/wgs84_pos#long', 0.99993914160577946), (u'imageSize', 0.99998804769884198), (u'children', 0.99999880620398751), (u'imagesize', 0.99999935318092548), (u'class', 0.99999955950750896), (u'district', 0.99999977930936568)]
NOT correct mapping: areaLand - areaTotal
/Users/emiliakacprzak/Code/papers/semantification/benchmark_labels_new/smallSample/small15/dbo_areaLand-249-small-15var.csv
[(u'areaTotal', 0.00561022329545028), (u'areaLand', 0.010442110382001405), (u'areaWater', 0.954924295470936), (u'populationTotal', 0.9997932235440754), (u'censusYear', 0.9999965018333622), (u'populationRange', 0.99999652970682784), (u'foundingYear', 0.9999968707942215), (u'PopulatedPlace/areaTotal', 0.9999988336316294), (u'populationDensity', 0.9999997654836047), (u'PopulatedPlace/populationDensity', 0.9999997654842081), (u'currentNumber', 0.99999992791962955), (u'percentageOfAreaWater', 0.99999998460607), (u'utcOffset', 0.9999999996813884), (u'area', 1.0)]
NOT correct mapping: populationDensity - PopulatedPlace/populationDensity
/Users/emiliakacprzak/Code/papers/semantification/benchmark_labels_new/smallSample/small15/dbo_populationDensity-401-small-15var.csv
[(u'PopulatedPlace/populationDensity', 0.018333333333333333), (u'populationDensity', 0.018333333333333333), (u'populationTotal', 0.2767402376910017), (u'elevation', 0.6821527138914444), (u'years', 0.99205290188093331), (u'areaTotal', 0.9958192307692307), (u'PopulatedPlace/areaTotal', 0.9985771704180064), (u'areaLand', 0.9996158490566037), (u'imageSize', 0.99969630203567783), (u'floorArea', 0.9997358221371162), (u'weight', 0.99984438146276899), (u'heightFt', 0.99984438146276899), (u'heightIn', 0.99984438146276899), (u'o/wgs84_pos#lat', 0.99996467036614711), (u'o/wgs84_pos#long', 0.9999649300465171), (u'height', 0.99997617118935134)]
NOT correct mapping: areaLand - areaTotal
/Users/emiliakacprzak/Code/papers/semantification/benchmark_labels_new/smallSample/small15/dbo_areaLand-250-small-15var.csv
[(u'areaTotal', 0.005613509156822215), (u'areaLand', 0.01793691386727812), (u'areaWater', 0.884203304258713), (u'postalCode', 0.909682307704007), (u'populationMetro', 0.9820392683960752), (u'areaCode', 0.9990874486862718), (u'populationTotal', 0.9991720895928756), (u'PopulatedPlace/populationDensity', 0.9996298365626137), (u'populationDensity', 0.9996298365626137), (u'elevation', 0.9997344973432313), (u'utcOffset', 0.9999869960424622), (u'PopulatedPlace/areaTotal', 0.9999987647871199), (u'percentageOfAreaWater', 0.9999999889714879), (u'o/wgs84_pos#lat', 1.0)]
NOT correct mapping: populationDensity - PopulatedPlace/populationDensity
/Users/emiliakacprzak/Code/papers/semantification/benchmark_labels_new/smallSample/small15/dbo_populationDensity-406-small-15var.csv
